IRIDIUM 7               
1 24793U 97020B   24333.53559814  .00001474  00000+0  50479-3 0  9991
2 24793  86.3954 260.9472 0002550  80.6816 279.4669 14.35628294443102
IRIDIUM 5               
1 24795U 97020D   24333.29282768  .00010331  00000+0  90963-3 0  9991
2 24795  86.3928 176.0978 0116488 137.0825 223.9566 14.91197642455491
IRIDIUM 4               
1 24796U 97020E   24333.57616746  .00001421  00000+0  47753-3 0  9999
2 24796  86.3955 257.9371 0002388  85.1609 274.9861 14.36540472443699
IRIDIUM 914             
1 24836U 97030A   24333.57941063  .00001873  00000+0  58298-3 0  9995
2 24836  86.3925 267.1458 0003171 115.2501 244.9027 14.40490700578241
IRIDIUM 16              
1 24841U 97030F   24333.58789795  .00001739  00000+0  56499-3 0  9996
2 24841  86.4003 289.5623 0003446  46.6888 313.4597 14.38355250438164
IRIDIUM 911             
1 24842U 97030G   24333.77107437  .00002521  00000+0  68513-3 0  9995
2 24842  86.4427 288.4593 0016213  51.7542 308.5117 14.47143548446076
IRIDIUM 17              
1 24870U 97034B   24333.38144465  .00001630  00000+0  53878-3 0  9997
2 24870  86.3931 319.2243 0001608  41.5729 318.5590 14.37455897434735
IRIDIUM 920             
1 24871U 97034C   24333.38470070  .00001802  00000+0  55256-3 0  9995
2 24871  86.3943 298.9022 0012831  33.9748 326.2271 14.41159687437652
